<?xml version="1.0" encoding="UTF-8"?>
<kml xmlns="http://www.opengis.net/kml/2.2">
  <Document>
    <name>Geospatial Measurement API demo</name>
    <Placemark>
      <name>Sample field</name>
      <Polygon>
        <outerBoundaryIs>
          <LinearRing>
            <coordinates>77.5946,12.9716,0 77.5956,12.9716,0 77.5956,12.9726,0 77.5946,12.9726,0 77.5946,12.9716,0</coordinates>
          </LinearRing>
        </outerBoundaryIs>
      </Polygon>
    </Placemark>
    <Placemark>
      <name>Sample route</name>
      <LineString>
        <coordinates>77.5946,12.9716,0 77.5960,12.9730,0</coordinates>
      </LineString>
    </Placemark>
    <Placemark>
      <name>Sample point</name>
      <Point><coordinates>77.5950,12.9720,0</coordinates></Point>
    </Placemark>
  </Document>
</kml>
